schoolname,SIGUN_CD,schoolAdd,region,GRD1,GRD2,GRD3,SumStu,city,district,town
평택여자고등학교,41220,경기도 평택시 세교동 1-2번지 평택여자종합고등학교,경기도 평택시,359,323,350,1032,평택시,None,세교동
포천고등학교,41650,경기도 포천시 신읍동 345번지 포천고등학교,경기도 포천시,247,233,246,726,포천시,None,신읍동
포천일고등학교,41650,경기도 포천시 군내면 하성북리 663번지 포천일고등학교,경기도 포천시,147,184,247,578,포천시,None,군내면
풍덕고등학교,41460,경기도 용인시 수지구 풍덕천동 1121번지 풍덕고등학교,경기도 용인시 수지구,465,422,476,1363,용인시,수지구,풍덕천동
풍생고등학교,41130,경기도 성남시 수정구 수진동 4511-1번지 풍생고등학교,경기도 성남시 수정구,240,219,271,730,성남시,수정구,수진동
하남고등학교,41450,경기도 하남시 망월동 778-1번지,경기도 하남시,279,250,257,786,하남시,None,망월동
하남경영고등학교,41450,경기도 하남시 창우동 521-2번지 하남경영고등학교,경기도 하남시,191,240,263,694,하남시,None,창우동
하성고등학교,41570,경기도 김포시 하성면 마곡리 640-1번지 하성고등학교,경기도 김포시,96,84,87,267,김포시,None,하성면
한광고등학교,41220,경기도 평택시 비전동 504번지 한광고등학교,경기도 평택시,309,278,303,890,평택시,None,비전동
한광여자고등학교,41220,경기도 평택시 비전동 504번지 한광여자고등학교,경기도 평택시,336,306,293,935,평택시,None,비전동
한국관광고등학교,41220,경기도 평택시 고덕면 당현리 41번지,경기도 평택시,85,82,89,256,평택시,None,고덕면
한국도예고등학교,41500,경기도 이천시 신둔면 수남리 176-4번지 한국도예고등학교,경기도 이천시,76,74,68,218,이천시,None,신둔면
한국디지털미디어고등학교,41270,경기도 안산시 단원구 와동 산27-1번지,경기도 안산시 단원구,208,199,214,621,안산시,단원구,와동
한국애니메이션고등학교,41450,경기도 하남시 창우동 523-4번지,경기도 하남시,100,95,100,295,하남시,None,창우동
한국조리과학고등학교,41390,경기도 시흥시 과림동 11-1번지,경기도 시흥시,244,246,238,728,시흥시,None,과림동
한솔고등학교,41130,경기도 성남시 분당구 정자동 115번지,경기도 성남시 분당구,286,256,288,830,성남시,분당구,정자동
경기자동차과학고등학교,41390,경기도 시흥시 무지내동 341-2번지 경기자동차과학고등학교,경기도 시흥시,240,229,216,685,시흥시,None,무지내동
함현고등학교,41390,경기도 시흥시 정왕동 1878-9번지 함현고등학교,경기도 시흥시,307,254,287,848,시흥시,None,정왕동
행신고등학교,41280,경기도 고양시 덕양구 행신동 790번지 행신고등학교,경기도 고양시 덕양구,313,279,314,906,고양시,덕양구,행신동
호원고등학교,41150,경기도 의정부시 호원동 226-154번지,경기도 의정부시,281,290,311,882,의정부시,None,호원동
화성고등학교,41590,경기도 화성시 향남읍 장짐리 161번지 화성고등학교,경기도 화성시,276,279,333,888,화성시,None,향남읍
화수고등학교,41280,경기도 고양시 덕양구 화정동 854번지,경기도 고양시 덕양구,313,288,330,931,고양시,덕양구,화정동
화정고등학교,41280,경기도 고양시 덕양구 화정동 938번지 화정고등학교,경기도 고양시 덕양구,311,268,310,889,고양시,덕양구,화정동
화홍고등학교,41110,경기도 수원시 권선구 권선동 1302번지 화홍고등학교,경기도 수원시 권선구,342,321,394,1057,수원시,권선구,권선동
효명고등학교,41220,경기도 평택시 장당동 470번지 효명중고등학교,경기도 평택시,274,274,293,841,평택시,None,장당동
효성고등학교,41130,경기도 성남시 수정구 심곡동 321번지 효성고등학교,경기도 성남시 수정구,220,206,253,679,성남시,수정구,심곡동
효원고등학교,41110,경기도 수원시 영통구 매탄동 1154번지 효원고등학교,경기도 수원시 영통구,356,331,411,1098,수원시,영통구,매탄동
흥진고등학교,41410,경기도 군포시 금정동 875-7번지 흥진고등학교,경기도 군포시,335,351,384,1070,군포시,None,금정동
돌마고등학교,41130,경기도 성남시 분당구 이매동 265번지 돌마고등학교,경기도 성남시 분당구,244,234,270,748,성남시,분당구,이매동
부용고등학교,41150,경기도 의정부시 민락동 757-1번지 부용고등학교,경기도 의정부시,253,264,283,800,의정부시,None,민락동
경기예술고등학교,41190,경기도 부천시 중동 1031번지 경기예술고등학교,경기도 부천시,248,241,234,723,부천시,None,중동
송호고등학교,41270,경기도 안산시 상록구 이동 665번지 송호고등학교,경기도 안산시 상록구,349,363,495,1207,안산시,상록구,이동
운천고등학교,41370,경기도 오산시 부산동 778-5번지 운천고등학교,경기도 오산시,295,280,331,906,오산시,None,부산동
서원고등학교,41460,경기도 용인시 수지구 상현동 836번지,경기도 용인시 수지구,377,328,372,1077,용인시,수지구,상현동
천천고등학교,41110,경기도 수원시 장안구 천천동 513번지 천천고등학교,경기도 수원시 장안구,266,239,290,795,수원시,장안구,천천동
조원고등학교,41110,경기도 수원시 장안구 조원동 44번지 조원고등학교,경기도 수원시 장안구,254,227,277,758,수원시,장안구,조원동
늘푸른고등학교,41130,경기도 성남시 분당구 정자동 6-3번지,경기도 성남시 분당구,270,252,283,805,성남시,분당구,정자동
대신고등학교,41670,경기도 여주시 대신면 후포리 258-1번지 대신고등학교,경기도 여주시,85,86,92,263,여주시,None,대신면
대평고등학교,41110,경기도 수원시 장안구 정자동 870-4번지 대평고등학교,경기도 수원시 장안구,297,265,324,886,수원시,장안구,정자동
덕산고등학교,41190,경기도 부천시 오정동 111-4번지 덕산고등학교,경기도 부천시,238,221,254,713,부천시,None,오정동
덕소고등학교,41360,경기도 남양주시 와부읍 도곡리 986번지 덕소고등학교,경기도 남양주시,375,331,364,1070,남양주시,None,와부읍
상일고등학교,41190,경기도 부천시 상동 572-2번지,경기도 부천시,209,178,268,655,부천시,None,상동
송내고등학교,41190,경기도 부천시 송내동 695번지,경기도 부천시,235,210,246,691,부천시,None,송내동
구성고등학교,41460,경기도 용인시 기흥구 마북동 545-8번지 구성고등학교,경기도 용인시 기흥구,284,266,299,849,용인시,기흥구,마북동
매탄고등학교,41110,경기도 수원시 영통구 매탄동 1247번지 매탄고등학교,경기도 수원시 영통구,323,298,318,939,수원시,영통구,매탄동
인덕원고등학교,41170,경기도 안양시 동안구 관양동 193-3번지 인덕원고등학교,경기도 안양시 동안구,310,296,320,926,안양시,동안구,관양동
범박고등학교,41190,경기도 부천시 범박동 113-70번지 범박고등학교,경기도 부천시,249,253,266,768,부천시,None,범박동
덕계고등학교,41630,경기도 양주시 덕계동 524-1번지 덕계고등학교,경기도 양주시,258,250,269,777,양주시,None,덕계동
단원고등학교,41270,경기도 안산시 단원구 고잔동 426번지,경기도 안산시 단원구,248,247,272,767,안산시,단원구,고잔동
군서고등학교,41390,경기도 시흥시 정왕동 1808-1번지,경기도 시흥시,323,300,304,927,시흥시,None,정왕동
풍동고등학교,41280,경기도 고양시 일산동구 풍동 1231번지 풍동고등학교,경기도 고양시 일산동구,265,264,266,795,고양시,일산동구,풍동
평내고등학교,41360,경기도 남양주시 평내동 568번지 평내고등학교,경기도 남양주시,291,283,313,887,남양주시,None,평내동
신장고등학교,41450,경기도 하남시 신장동 369번지 신장고등학교,경기도 하남시,221,198,195,614,하남시,None,신장동
효양고등학교,41500,경기도 이천시 부발읍 신하리 264-1번지 효양고등학교,경기도 이천시,260,248,281,789,이천시,None,부발읍
보정고등학교,41460,경기도 용인시 기흥구 보정동 1281번지 보정고등학교,경기도 용인시 기흥구,339,295,351,985,용인시,기흥구,보정동
풍무고등학교,41570,경기도 김포시 풍무동 411-5번지 풍무고등학교,경기도 김포시,390,334,389,1113,김포시,None,풍무동
병점고등학교,41590,경기도 화성시 병점동 861번지 병점고등학교,경기도 화성시,349,313,354,1016,화성시,None,병점동
봉일천고등학교,41480,경기도 파주시 조리읍 봉일천리 254-2번지,경기도 파주시,269,252,299,820,파주시,None,조리읍
교하고등학교,41480,경기도 파주시 동패동 1707번지 교하고등학교,경기도 파주시,314,278,302,894,파주시,None,동패동
상우고등학교,41150,경기도 의정부시 의정부동 611번지 상우고등학교,경기도 의정부시,251,251,289,791,의정부시,None,의정부동
이우고등학교,41130,경기도 성남시 분당구 동원동 157-1번지 이우중고등학교,경기도 성남시 분당구,82,76,79,237,성남시,분당구,동원동
경기외국어고등학교,41430,경기도 의왕시 고천동 438-1번지,경기도 의왕시,204,200,204,608,의왕시,None,고천동
경기북과학고등학교,41150,경기도 의정부시 녹양동 305번지 경기북과학고등학교,경기도 의정부시,101,104,68,273,의정부시,None,녹양동
동두천외국어고등학교,41250,경기도 동두천시 지행동 310-1번지 동두천외국어고등학교,경기도 동두천시,214,192,204,610,동두천시,None,지행동
금촌고등학교,41480,경기도 파주시 금릉동 451번지 금촌고등학교,경기도 파주시,343,338,350,1031,파주시,None,금릉동
용인한국외국어대학교부설고등학교,41460,경기도 용인시 처인구 모현읍 왕산리 267번지 용인한국외국어대학교부설고등학교,경기도 용인시 처인구,358,366,358,1082,용인시,처인구,모현읍
양주백석고등학교,41630,경기도 양주시 백석읍 오산리 554번지,경기도 양주시,225,240,291,756,양주시,None,백석읍
성남외국어고등학교,41130,경기도 성남시 분당구 백현동 376-1번지,경기도 성남시 분당구,213,211,205,629,성남시,분당구,백현동
성포고등학교,41270,경기도 안산시 상록구 성포동 594-1번지,경기도 안산시 상록구,294,308,388,990,안산시,상록구,성포동
수원외국어고등학교,41110,경기도 수원시 영통구 이의동 1088-23번지,경기도 수원시 영통구,216,204,209,629,수원시,영통구,이의동
청심국제고등학교,41820,경기도 가평군 설악면 송산리 산102번지 청심국제중고등학교,경기도 가평군,105,103,101,309,가평군,None,설악면
현화고등학교,41220,경기도 평택시 안중읍 현화리 830-1번지 현화고등학교,경기도 평택시,261,262,272,795,평택시,None,안중읍
호평고등학교,41360,경기도 남양주시 호평동 677번지 호평고등학교,경기도 남양주시,269,271,293,833,남양주시,None,호평동
김포외국어고등학교,41570,경기도 김포시 월곶면 갈산리 465-33번지 김포외국어고등학교,경기도 김포시,183,166,175,524,김포시,None,월곶면
용인백현고등학교,41460,경기도 용인시 기흥구 동백동 664번지 용인백현고등학교,경기도 용인시 기흥구,275,248,276,799,용인시,기흥구,동백동
한겨레고등학교,41550,경기도 안성시 죽산면 칠장리 10-1번지,경기도 안성시,22,21,46,89,안성시,None,죽산면
양주고등학교,41630,경기도 양주시 삼숭동 680-1번지 양주고등학교,경기도 양주시,172,165,201,538,양주시,None,삼숭동
송우고등학교,41650,경기도 포천시 소흘읍 송우리 728-8번지 송우고교,경기도 포천시,321,298,337,956,포천시,None,소흘읍
덕정고등학교,41630,경기도 양주시 고암동 121-1번지 덕정고등학교,경기도 양주시,298,286,290,874,양주시,None,고암동
도당고등학교,41190,경기도 부천시 도당동 64번지,경기도 부천시,251,231,266,748,부천시,None,도당동
동남고등학교,41650,경기도 포천시 소흘읍 송우리 537-1번지 동남중고등학교,경기도 포천시,290,287,303,880,포천시,None,소흘읍
동두천고등학교,41250,경기도 동두천시 생연동 451번지 동두천고등학교,경기도 동두천시,149,126,148,423,동두천시,None,생연동
한국문화영상고등학교,41250,경기도 동두천시 생연동 산43-2번지 한국문화영상고등학교 (생연동),경기도 동두천시,200,200,202,602,동두천시,None,생연동
동두천중앙고등학교,41250,경기도 동두천시 지행동 340-2번지,경기도 동두천시,185,152,179,516,동두천시,None,지행동
동안고등학교,41170,경기도 안양시 동안구 평촌동 898-3번지 동안고등학교,경기도 안양시 동안구,374,350,394,1118,안양시,동안구,평촌동
동우여자고등학교,41110,경기도 수원시 장안구 이목동 산28-12번지 동우여자고등학교,경기도 수원시 장안구,296,257,310,863,수원시,장안구,이목동
동원고등학교,41110,경기도 수원시 장안구 이목동 산28-12번지 동원고등학교,경기도 수원시 장안구,348,307,390,1045,수원시,장안구,이목동
동일공업고등학교,41220,경기도 평택시 비전동 135-4번지,경기도 평택시,282,284,317,883,평택시,None,비전동
동화고등학교,41360,경기도 남양주시 다산동 4106번지 동화고등학교,경기도 남양주시,448,426,471,1345,남양주시,None,다산동
두레자연고등학교,41590,경기도 화성시 우정읍 화산리 692-11번지 두레자연고등학교,경기도 화성시,41,35,38,114,화성시,None,우정읍
마장고등학교,41500,경기도 이천시 마장면 양촌리 54번지 마장고등학교,경기도 이천시,43,32,65,140,이천시,None,마장면
매향여자정보고등학교,41110,경기도 수원시 팔달구 매향동 110-2번지 매향여자정보고등학교,경기도 수원시 팔달구,335,326,328,989,수원시,팔달구,매향동
무원고등학교,41280,경기도 고양시 덕양구 행신동 977번지,경기도 고양시 덕양구,256,276,321,853,고양시,덕양구,행신동
문산고등학교,41480,경기도 파주시 문산읍 당동리 149번지 문산고등학교,경기도 파주시,111,116,126,353,파주시,None,문산읍
문산수억고등학교,41480,경기도 파주시 파주읍 봉서리 291-3번지,경기도 파주시,239,234,255,728,파주시,None,파주읍
경기모바일과학고등학교,41270,경기도 안산시 상록구 팔곡일동 253번지 경기모바일과학고등학교,경기도 안산시 상록구,215,243,248,706,안산시,상록구,팔곡일동
발안바이오과학고등학교,41590,경기도 화성시 향남읍 평리 62-1번지 발안바이오과학고등학교,경기도 화성시,106,97,99,302,화성시,None,향남읍
백석고등학교,41280,경기도 고양시 일산동구 마두동 784번지 백석고등학교,경기도 고양시 일산동구,316,323,349,988,고양시,일산동구,마두동
백신고등학교,41280,경기도 고양시 일산동구 백석동 1347번지 백신고등학교,경기도 고양시 일산동구,322,322,380,1024,고양시,일산동구,백석동
백암고등학교,41460,경기도 용인시 처인구 백암면 근창리 166번지 백암중고등학교,경기도 용인시 처인구,79,94,89,262,용인시,처인구,백암면
백양고등학교,41280,경기도 고양시 덕양구 행신동 897번지 백양고등학교,경기도 고양시 덕양구,308,269,326,903,고양시,덕양구,행신동
백영고등학교,41170,경기도 안양시 동안구 평촌동 932번지,경기도 안양시 동안구,342,321,349,1012,안양시,동안구,평촌동
백운고등학교,41430,경기도 의왕시 내손동 665-5번지,경기도 의왕시,267,258,296,821,의왕시,None,내손동
보영여자고등학교,41250,경기도 동두천시 생연동 522-1번지 보영여자고등학교,경기도 동두천시,132,140,169,441,동두천시,None,생연동
부명고등학교,41190,경기도 부천시 중동 1173번지 부명고등학교,경기도 부천시,254,266,281,801,부천시,None,중동
경기국제통상고등학교,41190,경기도 부천시 중동 1171-1번지 경기국제통상고등학교,경기도 부천시,301,300,283,884,부천시,None,중동
상동고등학교,41190,경기도 부천시 상동 620-1번지 상동고등학교,경기도 부천시,253,256,282,791,부천시,None,상동
부천고등학교,41190,경기도 부천시 송내동 437번지 부천고등학교,경기도 부천시,250,249,263,762,부천시,None,송내동
부천공업고등학교,41190,경기도 부천시 소사구 경인로120번길(송내동 455),경기도 부천시,207,275,368,850,부천시,None,소사구
부천북고등학교,41190,경기도 부천시 도당동 54번지 부천북고등학교,경기도 부천시,246,248,269,763,부천시,None,도당동
부천여자고등학교,41190,경기도 부천시 상동 314번지,경기도 부천시,246,200,252,698,부천시,None,상동
부천정보산업고등학교,41190,경기도 부천시 상동 391번지,경기도 부천시,251,272,282,805,부천시,None,상동
분당고등학교,41130,경기도 성남시 분당구 수내동 25번지 분당고등학교,경기도 성남시 분당구,295,269,311,875,성남시,분당구,수내동
분당대진고등학교,41130,경기도 성남시 분당구 분당동 72번지 분당대진고등학교,경기도 성남시 분당구,343,304,343,990,성남시,분당구,분당동
분당경영고등학교,41130,경기도 성남시 분당구 금곡동 123번지,경기도 성남시 분당구,227,229,260,716,성남시,분당구,금곡동
상원고등학교,41190,경기도 부천시 상동 570-8번지 상원고등학교,경기도 부천시,250,265,286,801,부천시,None,상동
성사고등학교,41280,경기도 고양시 덕양구 성사동 624-3번지 성사고등학교,경기도 고양시 덕양구,247,236,265,748,고양시,덕양구,성사동
현암고등학교,41460,경기도 용인시 수지구 죽전동 1354번지 현암고등학교,경기도 용인시 수지구,196,194,224,614,용인시,수지구,죽전동
효자고등학교,41150,경기도 의정부시 신곡동 768-1번지 효자고등학교,경기도 의정부시,281,292,311,884,의정부시,None,신곡동
고양예술고등학교,41280,경기도 고양시 일산서구 덕이동 753-11번지,경기도 고양시 일산서구,286,264,259,809,고양시,일산서구,덕이동
대지고등학교,41460,경기도 용인시 수지구 죽전동 1333번지 대지고등학교,경기도 용인시 수지구,312,272,329,913,용인시,수지구,죽전동
동탄고등학교,41590,경기도 화성시 반송동 60번지 동탄고등학교,경기도 화성시,320,329,390,1039,화성시,None,반송동
안화고등학교,41590,경기도 화성시 병점동 852번지,경기도 화성시,345,329,368,1042,화성시,None,병점동
운암고등학교,41370,경기도 오산시 원동 815-6번지 운암고등학교,경기도 오산시,236,231,229,696,오산시,None,원동
동백고등학교,41460,경기도 용인시 기흥구 동백동 601번지 동백고등학교,경기도 용인시 기흥구,307,260,311,878,용인시,기흥구,동백동
망포고등학교,41110,경기도 수원시 영통구 망포동 672-6번지,경기도 수원시 영통구,267,259,274,800,수원시,영통구,망포동
매원고등학교,41110,경기도 수원시 영통구 매탄동 1229-11번지,경기도 수원시 영통구,289,283,299,871,수원시,영통구,매탄동
반송고등학교,41590,경기도 화성시 반송동 213번지,경기도 화성시,345,322,353,1020,화성시,None,반송동
봉담고등학교,41590,경기도 화성시 봉담읍 동화리 570번지 봉담고등학교,경기도 화성시,282,286,317,885,화성시,None,봉담읍
수주고등학교,41190,경기도 부천시 고강동 275-11번지,경기도 부천시,157,164,202,523,부천시,None,고강동
고양일고등학교,41280,경기도 고양시 덕양구 고양동 248-17번지 고양일고등학교,경기도 고양시 덕양구,204,187,205,596,고양시,덕양구,고양동
안곡고등학교,41280,경기도 고양시 일산동구 중산동 1718번지 안곡고등학교,경기도 고양시 일산동구,319,314,334,967,고양시,일산동구,중산동
와부고등학교,41360,경기도 남양주시 와부읍 덕소리 33번지 임의로수정,경기도 남양주시,247,216,203,666,남양주시,None,와부읍
고색고등학교,41110,경기도 수원시 권선구 고색동 888-158번지 고색고등학교,경기도 수원시 권선구,260,253,267,780,수원시,권선구,고색동
나루고등학교,41590,경기도 화성시 반송동 179번지,경기도 화성시,255,248,284,787,화성시,None,반송동
초당고등학교,41460,경기도 용인시 기흥구 중동 1040번지 초당고등학교,경기도 용인시 기흥구,297,263,305,865,용인시,기흥구,중동
복정고등학교,41130,경기도 성남시 수정구 복정동 144-1번지 복정고등학교,경기도 성남시 수정구,187,163,174,524,성남시,수정구,복정동
포곡고등학교,41460,경기도 용인시 처인구 포곡읍 둔전리 88-2번지 포곡고등학교,경기도 용인시 처인구,279,283,305,867,용인시,처인구,포곡읍
향남고등학교,41590,경기도 화성시 향남읍 행정리 488번지,경기도 화성시,233,258,286,777,화성시,None,향남읍
청덕고등학교,41460,경기도 용인시 기흥구 청덕동 524번지 청덕고등학교,경기도 용인시 기흥구,295,260,282,837,용인시,기흥구,청덕동
시흥능곡고등학교,41390,경기도 시흥시 능곡동 485번지 시흥능곡고등학교,경기도 시흥시,297,314,339,950,시흥시,None,능곡동
시흥매화고등학교,41390,경기도 시흥시 매화동 196번지 시흥매화고등학교,경기도 시흥시,205,205,224,634,시흥시,None,매화동
발곡고등학교,41150,경기도 의정부시 신곡동 248-36번지 발곡고등학교,경기도 의정부시,255,266,260,781,의정부시,None,신곡동
신천고등학교,41390,경기도 시흥시 신천동 534-2번지,경기도 시흥시,260,255,279,794,시흥시,None,신천동
선부고등학교,41270,경기도 안산시 단원구 선부동 35번지 선부고등학교,경기도 안산시 단원구,265,230,272,767,안산시,단원구,선부동
오남고등학교,41360,경기도 남양주시 오남읍 양지리 80-4번지 오남고등학교,경기도 남양주시,350,336,364,1050,남양주시,None,오남읍
의왕고등학교,41430,경기도 의왕시 삼동 268번지 의왕고등학교,경기도 의왕시,177,185,221,583,의왕시,None,삼동
이충고등학교,41220,경기도 평택시 이충동 657번지 이충고등학교,경기도 평택시,269,268,290,827,평택시,None,이충동
장기고등학교,41570,경기도 김포시 장기동 1654번지 장기고등학교,경기도 김포시,323,300,327,950,김포시,None,장기동
신길고등학교,41270,경기도 안산시 단원구 신길동 1672번지 신길고등학교,경기도 안산시 단원구,271,254,290,815,안산시,단원구,신길동
광남고등학교,41610,경기도 광주시 장지동 229-19번지,경기도 광주시,253,248,333,834,광주시,None,장지동
분당중앙고등학교,41130,경기도 성남시 분당구 정자동 220번지 분당중앙고등학교,경기도 성남시 분당구,285,263,305,853,성남시,분당구,정자동
불곡고등학교,41130,경기도 성남시 분당구 구미동 91번지 불곡고등학교,경기도 성남시 분당구,281,257,268,806,성남시,분당구,구미동
비봉고등학교,41590,경기도 화성시 비봉면 양노리 259-3번지,경기도 화성시,242,208,260,710,화성시,None,비봉면
사우고등학교,41570,경기도 김포시 사우동 908번지 사우고등학교,경기도 김포시,360,359,347,1066,김포시,None,사우동
산본고등학교,41410,경기도 군포시 산본동 1090번지,경기도 군포시,392,347,420,1159,군포시,None,산본동
삼광고등학교,41480,경기도 파주시 적성면 식현리 284번지 삼광고등학교,경기도 파주시,51,30,51,132,파주시,None,적성면
삼괴고등학교,41590,경기도 화성시 우정읍 조암리 139번지 삼괴고등학교,경기도 화성시,208,215,208,631,화성시,None,우정읍
삼일공업고등학교,41110,경기도 수원시 팔달구 매향동 10-22번지 삼일공고,경기도 수원시 팔달구,370,385,381,1136,수원시,팔달구,매향동
삼일상업고등학교,41110,경기도 수원시 팔달구 매향동 10-22번지,경기도 수원시 팔달구,335,333,323,991,수원시,팔달구,매향동
서울삼육고등학교,41310,경기도 구리시 교문동 산90번지,경기도 구리시,228,206,214,648,구리시,None,교문동
서해고등학교,41390,경기도 시흥시 정왕동 1886-6번지 서해고등학교,경기도 시흥시,355,332,332,1019,시흥시,None,정왕동
서현고등학교,41130,경기도 성남시 분당구 서현동 91-1번지 서현고등학교,경기도 성남시 분당구,294,272,320,886,성남시,분당구,서현동
설악고등학교,41820,경기도 가평군 설악면 신천리 72번지 설악중고등학교,경기도 가평군,54,54,59,167,가평군,None,설악면
성남테크노과학고등학교,41130,경기도 성남시 중원구 하대원동 153번지,경기도 성남시 중원구,153,156,208,517,성남시,중원구,하대원동
성남고등학교,41130,경기도 성남시 중원구 성남동 2870번지,경기도 성남시 중원구,203,194,215,612,성남시,중원구,성남동
성남여자고등학교,41130,경기도 성남시 중원구 성남동 2876-4번지,경기도 성남시 중원구,231,224,251,706,성남시,중원구,성남동
성남금융고등학교,41130,경기도 성남시 분당구 야탑동 216번지 성남금융고등학교,경기도 성남시 분당구,134,164,250,548,성남시,분당구,야탑동
성문고등학교,41170,경기도 안양시 만안구 안양동 501-28번지 성문고등학교,경기도 안양시 만안구,316,288,327,931,안양시,만안구,안양동
성보경영고등학교,41130,경기도 성남시 수정구 단대동 5번지 성보경영고등학교,경기도 성남시 수정구,378,357,377,1112,성남시,수정구,단대동
성안고등학교,41270,경기도 안산시 상록구 사동 1582번지 성안고등학교,경기도 안산시 상록구,334,341,424,1099,안산시,상록구,사동
성일고등학교,41130,경기도 성남시 중원구 성남동 2876번지,경기도 성남시 중원구,279,266,340,885,성남시,중원구,성남동
동광고등학교,41130,경기도 성남시 중원구 성남동 2876-1번지 동광고등학교,경기도 성남시 중원구,232,214,264,710,성남시,중원구,성남동
성일정보고등학교,41130,경기도 성남시 중원구 성남동 2876번지 성일정보고등학교,경기도 성남시 중원구,371,363,365,1099,성남시,중원구,성남동
세원고등학교,41280,경기도 고양시 일산동구 풍동 195번지 세원고등학교,경기도 고양시 일산동구,174,147,187,508,고양시,일산동구,풍동
소래고등학교,41390,경기도 시흥시 은행동 108-8번지 소래고등학교,경기도 시흥시,360,362,399,1121,시흥시,None,은행동
소사고등학교,41190,경기도 부천시 소사본동 401-8번지,경기도 부천시,193,186,236,615,부천시,None,소사본동
소하고등학교,41210,경기도 광명시 소하동 1330번지 소하고등학교,경기도 광명시,344,313,411,1068,광명시,None,소하동
송림고등학교,41130,경기도 성남시 분당구 이매동 378번지,경기도 성남시 분당구,277,257,300,834,성남시,분당구,이매동
송산고등학교,41590,경기도 화성시 송산면 사강리 625번지 송산고등학교,경기도 화성시,110,86,87,283,화성시,None,송산면
송탄고등학교,41220,경기도 평택시 이충동 137-5번지 송탄고등학교,경기도 평택시,163,142,170,475,평택시,None,이충동
라온고등학교,41220,경기도 평택시 서정동 2-73번지 라온고등학교,경기도 평택시,161,161,174,496,평택시,None,서정동
송현고등학교,41150,경기도 의정부시 민락동 735-4번지,경기도 의정부시,286,299,326,911,의정부시,None,민락동
수내고등학교,41130,경기도 성남시 분당구 수내동 120번지 수내고등학교,경기도 성남시 분당구,279,250,246,775,성남시,분당구,수내동
수리고등학교,41410,경기도 군포시 산본동 1152-4번지 수리고등학교,경기도 군포시,391,407,390,1188,군포시,None,산본동
수성고등학교,41110,경기도 수원시 장안구 정자동 49번지 수성고등학교,경기도 수원시 장안구,321,296,373,990,수원시,장안구,정자동
홍익디자인고등학교,41590,경기도 화성시 기안동 460-97번지 홍익디자인고등학교,경기도 화성시,113,101,105,319,화성시,None,기안동
광덕고등학교,41270,경기도 안산시 상록구 월피동 236-37번지 광덕고등학교,경기도 안산시 상록구,249,243,284,776,안산시,상록구,월피동
흥덕고등학교,41460,경기도 용인시 기흥구 영덕동 1020번지,경기도 용인시 기흥구,228,241,253,722,용인시,기흥구,영덕동
덕현고등학교,41630,경기도 양주시 만송동 703번지 덕현고등학교,경기도 양주시,395,320,402,1117,양주시,None,만송동
서정고등학교,41280,경기도 고양시 덕양구 행신동 1065번지 서정고등학교,경기도 고양시 덕양구,304,275,313,892,고양시,덕양구,행신동
운산고등학교,41210,경기도 광명시 소하동 1285번지 운산고등학교,경기도 광명시,269,249,265,783,광명시,None,소하동
운정고등학교,41480,경기도 파주시 목동동 1146번지 운정고등학교,경기도 파주시,378,323,347,1048,파주시,None,목동동
마석고등학교,41360,경기도 남양주시 화도읍 녹촌리 69번지 마석고등학교,경기도 남양주시,320,306,326,952,남양주시,None,화도읍
상록고등학교,41270,경기도 안산시 상록구 본오동 산198번지 상록고등학교,경기도 안산시 상록구,336,340,402,1078,안산시,상록구,본오동
진접고등학교,41360,경기도 남양주시 진접읍 금곡리 1079번지 진접고등학교,경기도 남양주시,343,323,346,1012,남양주시,None,진접읍
세마고등학교,41370,경기도 오산시 세교동 626번지 세마고등학교,경기도 오산시,290,278,294,862,오산시,None,세교동
능동고등학교,41590,경기도 화성시 능동 1086번지 능동고등학교,경기도 화성시,265,267,314,846,화성시,None,능동
마송고등학교,41570,경기도 김포시 통진읍 마송리 509번지,경기도 김포시,129,86,47,262,김포시,None,통진읍
모락고등학교,41430,경기도 의왕시 오전동 산58-10번지 모락고등학교,경기도 의왕시,179,184,226,589,의왕시,None,오전동
경화여자English Business고등학교,41610,경기도 광주시 송정동 52-1번지,경기도 광주시,124,141,144,409,광주시,None,송정동
경기창조고등학교,41550,경기도 안성시 공도읍 만정리 789번지 경기창조고등학교,경기도 안성시,292,299,310,901,안성시,None,공도읍
보평고등학교,41130,경기도 성남시 분당구 백현동 544번지 보평고등학교,경기도 성남시 분당구,221,208,232,661,성남시,분당구,백현동
운중고등학교,41130,경기도 성남시 분당구 운중동 957번지 운중고등학교,경기도 성남시 분당구,222,204,229,655,성남시,분당구,운중동
가운고등학교,41360,경기도 남양주시 다산동 684번지 가운고등학교,경기도 남양주시,324,284,323,931,남양주시,None,다산동
동패고등학교,41480,경기도 파주시 동패동 1976번지 동패고등학교,경기도 파주시,378,330,346,1054,파주시,None,동패동
판교고등학교,41130,경기도 성남시 분당구 삼평동 706번지,경기도 성남시 분당구,209,187,218,614,성남시,분당구,삼평동
세교고등학교,41370,경기도 오산시 금암동 487번지 세교고등학교,경기도 오산시,310,285,349,944,오산시,None,금암동
서천고등학교,41460,경기도 용인시 기흥구 농서동 401번지,경기도 용인시 기흥구,262,217,253,732,용인시,기흥구,농서동
수원고등학교,41110,경기도 수원시 팔달구 매교동 191번지,경기도 수원시 팔달구,341,339,388,1068,수원시,팔달구,매교동
수원공업고등학교,41110,경기도 수원시 팔달구 인계동 249-1번지 수원공업고등학교,경기도 수원시 팔달구,426,409,426,1261,수원시,팔달구,인계동
수원농생명과학고등학교,41110,경기도 수원시 장안구 영화동 60번지 농생명과학고등학교,경기도 수원시 장안구,284,264,268,816,수원시,장안구,영화동
수원정보과학고등학교,41110,경기도 수원시 영통구 원천동 78-8번지,경기도 수원시 영통구,248,238,242,728,수원시,영통구,원천동
수일고등학교,41110,경기도 수원시 장안구 조원동 21번지,경기도 수원시 장안구,314,280,335,929,수원시,장안구,조원동
수지고등학교,41460,경기도 용인시 수지구 풍덕천동 688번지,경기도 용인시 수지구,425,394,448,1267,용인시,수지구,풍덕천동
수택고등학교,41310,경기도 구리시 수택동 881번지 수택고등학교,경기도 구리시,242,232,278,752,구리시,None,수택동
숙지고등학교,41110,경기도 수원시 팔달구 화서동 653번지 숙지고등학교,경기도 수원시 팔달구,311,276,329,916,수원시,팔달구,화서동
숭신여자고등학교,41130,경기도 성남시 중원구 금광동 2686번지 숭신여자중고교,경기도 성남시 중원구,226,210,278,714,성남시,중원구,금광동
시온고등학교,41190,경기도 부천시 범박동 산18-2번지,경기도 부천시,298,262,346,906,부천시,None,범박동
신갈고등학교,41460,경기도 용인시 기흥구 상갈동 150-1번지 신갈고등학교,경기도 용인시 기흥구,301,270,292,863,용인시,기흥구,상갈동
신성고등학교,41170,경기도 안양시 만안구 안양동 587-68번지 신성중고등학교,경기도 안양시 만안구,334,324,383,1041,안양시,만안구,안양동
신일비즈니스고등학교,41280,경기도 고양시 일산서구 일산동 1041번지,경기도 고양시 일산서구,186,162,284,632,고양시,일산서구,일산동
신한고등학교,41220,경기도 평택시 비전동 224-8번지,경기도 평택시,307,271,294,872,평택시,None,비전동
신흥고등학교,41250,경기도 동두천시 안흥동 36번지,경기도 동두천시,117,95,102,314,동두천시,None,안흥동
심석고등학교,41360,경기도 남양주시 화도읍 마석우리 215-9번지 심석고등학교,경기도 남양주시,349,330,376,1055,남양주시,None,화도읍
심원고등학교,41190,경기도 부천시 중동 1074-1번지 심원고등학교,경기도 부천시,246,248,263,757,부천시,None,중동
안법고등학교,41550,경기도 안성시 구포동 176번지 안법고등학교,경기도 안성시,242,224,222,688,안성시,None,구포동
안산강서고등학교,41270,경기도 안산시 단원구 와동 828번지,경기도 안산시 단원구,303,280,376,959,안산시,단원구,와동
안산국제비즈니스고등학교,41270,경기도 안산시 상록구 장상동 10번지,경기도 안산시 상록구,290,243,228,761,안산시,상록구,장상동
안산고등학교,41270,경기도 안산시 상록구 장상동 10-3번지 안산고등학교,경기도 안산시 상록구,296,299,345,940,안산시,상록구,장상동
안산공업고등학교,41270,경기도 안산시 상록구 부곡동 722번지,경기도 안산시 상록구,376,378,393,1147,안산시,상록구,부곡동
안산동산고등학교,41270,경기도 안산시 상록구 본오동 968-1번지 안산동산고등학교,경기도 안산시 상록구,335,385,390,1110,안산시,상록구,본오동
안성고등학교,41550,경기도 안성시 금산동 33-1번지 안성고등학교,경기도 안성시,215,220,255,690,안성시,None,금산동
안성여자고등학교,41550,경기도 안성시 신소현동 110번지,경기도 안성시,180,188,218,586,안성시,None,신소현동
가온고등학교,41550,경기도 안성시 발화동 215-7번지 가온고등학교,경기도 안성시,295,281,311,887,안성시,None,발화동
안양고등학교,41170,경기도 안양시 만안구 박달동 144-3번지 안양고등학교,경기도 안양시 만안구,319,303,328,950,안양시,만안구,박달동
안양공업고등학교,41170,경기도 안양시 만안구 안양동 881-3번지 안양공업고등학교,경기도 안양시 만안구,169,201,292,662,안양시,만안구,안양동
안양여자고등학교,41170,경기도 안양시 만안구 안양동 840-2번지,경기도 안양시 만안구,216,210,228,654,안양시,만안구,안양동
안양여자상업고등학교,41170,경기도 안양시 만안구 안양동 산41-1번지,경기도 안양시 만안구,169,182,191,542,안양시,만안구,안양동
안양예술고등학교,41170,경기도 안양시 만안구 안양동 산42-1번지 안양예술고등학교,경기도 안양시 만안구,311,266,285,862,안양시,만안구,안양동
안양외국어고등학교,41170,경기도 안양시 만안구 안양동 산41-1번지 안양외국어고등학교,경기도 안양시 만안구,232,221,240,693,안양시,만안구,안양동
경기물류고등학교,41220,경기도 평택시 안중읍 안중리 293-46번지 경기물류고등학교,경기도 평택시,154,149,145,448,평택시,None,안중읍
안중고등학교,41220,경기도 평택시 안중읍 현화리 315번지 안중고등학교,경기도 평택시,170,167,219,556,평택시,None,안중읍
야탑고등학교,41130,경기도 성남시 분당구 야탑동 145-3번지 야탑고등학교,경기도 성남시 분당구,274,250,270,794,성남시,분당구,야탑동
백마고등학교,41280,경기도 고양시 일산동구 백석동 1138번지 백마고등학교,경기도 고양시 일산동구,333,320,400,1053,고양시,일산동구,백석동
양곡고등학교,41570,경기도 김포시 양촌읍 양곡리 286-1번지 양곡고등학교,경기도 김포시,215,191,194,600,김포시,None,양촌읍
양동고등학교,41830,경기도 양평군 양동면 쌍학리 218-1번지 양동고등학교,경기도 양평군,71,60,73,204,양평군,None,양동면
양명고등학교,41170,경기도 안양시 만안구 안양동 64번지 양명고등학교,경기도 안양시 만안구,378,350,396,1124,안양시,만안구,안양동
양명여자고등학교,41170,경기도 안양시 만안구 안양동 산21-10번지 양명여자고등학교,경기도 안양시 만안구,366,334,383,1083,안양시,만안구,안양동
양서고등학교,41830,경기도 양평군 양서면 용담리 221-1번지,경기도 양평군,230,214,234,678,양평군,None,양서면
양영디지털고등학교,41130,경기도 성남시 분당구 서현동 316번지,경기도 성남시 분당구,190,189,169,548,성남시,분당구,서현동
양지고등학교,41270,경기도 안산시 단원구 고잔동 713번지 양지고등학교,경기도 안산시 단원구,280,251,340,871,안산시,단원구,고잔동
양평전자과학고등학교,41830,경기도 양평군 양서면 국수리 330-12번지 양평전자과학고등학교,경기도 양평군,68,70,107,245,양평군,None,양서면
양평고등학교,41830,경기도 양평군 양평읍 양근리 237-1번지,경기도 양평군,180,182,195,557,양평군,None,양평읍
여강고등학교,41670,경기도 여주시 북내면 신접리 200번지 여강중고등학교,경기도 여주시,83,81,89,253,여주시,None,북내면
여주고등학교,41670,경기도 여주시 교동 454-5번지 여주고등학교,경기도 여주시,167,159,161,487,여주시,None,교동
세종고등학교,41670,경기도 여주시 상동 144-5번지 세종고등학교,경기도 여주시,170,171,172,513,여주시,None,상동
여주자영농업고등학교,41670,경기도 여주시 능서면 왕대리 973-1번지,경기도 여주시,137,148,141,426,여주시,None,능서면
여주제일고등학교,41670,경기도 여주시 가남읍 심석리 350-1번지 여주제일고등학교,경기도 여주시,135,160,176,471,여주시,None,가남읍
연천고등학교,41800,경기도 연천군 연천읍 현가리 51-1번지 연천중고등학교,경기도 연천군,46,56,74,176,연천군,None,연천읍
영덕고등학교,41110,경기도 수원시 영통구 영통동 965-3번지 영덕고등학교,경기도 수원시 영통구,366,346,441,1153,수원시,영통구,영통동
분당영덕여자고등학교,41130,경기도 성남시 분당구 야탑동 455번지 분당영덕여자고등학교,경기도 성남시 분당구,269,238,288,795,성남시,분당구,야탑동
영복여자고등학교,41110,경기도 수원시 팔달구 화서동 7-10번지 영복여자고등학교,경기도 수원시 팔달구,314,278,315,907,수원시,팔달구,화서동
영북고등학교,41650,경기도 포천시 영북면 운천리 334-3번지 영북고등학교,경기도 포천시,52,49,45,146,포천시,None,영북면
영생고등학교,41110,경기도 수원시 장안구 천천동 555번지 영생고등학교,경기도 수원시 장안구,317,280,331,928,수원시,장안구,천천동
동국대학교사범대학부속영석고등학교,41150,경기도 의정부시 용현동 산33-1번지 동국대학교사범대학부속영석고등학교,경기도 의정부시,255,265,281,801,의정부시,None,용현동
영신여자고등학교,41110,경기도 수원시 권선구 오목천동 537-1번지 영신여자고등학교,경기도 수원시 권선구,291,280,296,867,수원시,권선구,오목천동
오산고등학교,41370,경기도 오산시 청학동 26번지 오산고등학교,경기도 오산시,297,275,319,891,오산시,None,청학동
오산정보고등학교,41370,경기도 오산시 청학동 41-6번지 오산정보고등학교,경기도 오산시,243,217,248,708,오산시,None,청학동
용문고등학교,41830,경기도 양평군 용문면 마룡리 663-2번지 용문고등학교,경기도 양평군,136,132,160,428,양평군,None,용문면
용인고등학교,41460,경기도 용인시 처인구 역북동 444-1번지 용인고등학교,경기도 용인시 처인구,374,371,393,1138,용인시,처인구,역북동
용인바이오고등학교,41460,"경기도 용인시 처인구 이동읍 송전리 692번지 용인바이오고등학교, 송전중학교",경기도 용인시 처인구,47,39,75,161,용인시,처인구,이동읍
덕영고등학교,41460,경기도 용인시 처인구 고림동 737-1번지 덕영고등학교,경기도 용인시 처인구,242,221,252,715,용인시,처인구,고림동
용호고등학교,41410,경기도 군포시 당동 875번지 용호고등학교,경기도 군포시,430,396,442,1268,군포시,None,당동
우성고등학교,41430,경기도 의왕시 고천동 496번지 우성고등학교,경기도 의왕시,266,254,315,835,의왕시,None,고천동
원곡고등학교,41270,경기도 안산시 단원구 원곡동 965-1번지 원곡고등학교,경기도 안산시 단원구,325,306,399,1030,안산시,단원구,원곡동
원미고등학교,41190,경기도 부천시 중동 1098번지 원미고등학교,경기도 부천시,257,268,287,812,부천시,None,중동
원종고등학교,41190,경기도 부천시 원종동 128-1번지 원종고등학교,경기도 부천시,234,252,275,761,부천시,None,원종동
유신고등학교,41110,경기도 수원시 팔달구 우만동 9-1번지 유신고등학교,경기도 수원시 팔달구,347,329,391,1067,수원시,팔달구,우만동
율곡고등학교,41480,경기도 파주시 법원읍 법원리 378번지,경기도 파주시,131,118,142,391,파주시,None,법원읍
율면고등학교,41500,경기도 이천시 율면 고당리 545번지,경기도 이천시,17,17,20,54,이천시,None,율면
은행고등학교,41390,경기도 시흥시 은행동 543-2번지 은행고등학교,경기도 시흥시,333,296,362,991,시흥시,None,은행동
소명여자고등학교,41190,경기도 부천시 소사동 2-7번지,경기도 부천시,273,234,296,803,부천시,None,소사동
안산디자인문화고등학교,41270,경기도 안산시 상록구 본오동 798번지 안산디자인문화고등학교,경기도 안산시 상록구,326,333,346,1005,안산시,상록구,본오동
인창고등학교,41310,경기도 구리시 인창동 669-3번지 인창고등학교,경기도 구리시,246,239,279,764,구리시,None,인창동
구리고등학교,41310,경기도 구리시 수택동 785번지 구리고등학교 행정실,경기도 구리시,242,229,304,775,구리시,None,수택동
율천고등학교,41110,경기도 수원시 팔달구 화서동 720번지 율천고등학교,경기도 수원시 팔달구,152,128,125,405,수원시,팔달구,화서동
용인삼계고등학교,41460,경기도 용인시 처인구 포곡읍 삼계리 143-11번지,경기도 용인시 처인구,213,220,230,663,용인시,처인구,포곡읍
중원고등학교,41190,경기도 부천시 중동 1025번지 중원고등학교,경기도 부천시,251,237,289,777,부천시,None,중동
충훈고등학교,41170,경기도 안양시 만안구 석수동 595-3번지,경기도 안양시 만안구,277,263,281,821,안양시,만안구,석수동
성지고등학교,41460,경기도 용인시 기흥구 구갈동 599번지,경기도 용인시 기흥구,363,325,353,1041,용인시,기흥구,구갈동
보라고등학교,41460,경기도 용인시 기흥구 보라동 605번지 보라고등학교,경기도 용인시 기흥구,245,214,249,708,용인시,기흥구,보라동
역곡고등학교,41190,경기도 부천시 역곡동 200-10번지,경기도 부천시,143,130,128,401,부천시,None,역곡동
은혜고등학교,41220,경기도 평택시 장안동 389-1번지 은혜고등학교,경기도 평택시,268,251,277,796,평택시,None,장안동
의정부고등학교,41150,경기도 의정부시 가능동 359-3번지 의정부고등학교,경기도 의정부시,322,323,354,999,의정부시,None,가능동
의정부공업고등학교,41150,경기도 의정부시 가능동 652번지 의정부공업고등학교,경기도 의정부시,363,386,437,1186,의정부시,None,가능동
이매고등학교,41130,경기도 성남시 분당구 이매동 147번지 이매고등학교,경기도 성남시 분당구,285,251,286,822,성남시,분당구,이매동
이천고등학교,41500,경기도 이천시 증포동 402번지 이천고등학교,경기도 이천시,262,267,300,829,이천시,None,증포동
이천제일고등학교,41500,경기도 이천시 안흥동 140번지,경기도 이천시,387,398,390,1175,이천시,None,안흥동
이천양정여자고등학교,41500,경기도 이천시 관고동 77번지 이천양정여자고등학교,경기도 이천시,261,265,294,820,이천시,None,관고동
다산고등학교,41500,경기도 이천시 사음동 150-6번지 다산고등학교,경기도 이천시,209,214,222,645,이천시,None,사음동
이포고등학교,41670,경기도 여주시 흥천면 계신리 468번지 이포고등학교,경기도 여주시,33,34,56,123,여주시,None,흥천면
일동고등학교,41650,경기도 포천시 일동면 기산리 96-59번지 일동고등학교,경기도 포천시,91,69,105,265,포천시,None,일동면
일산고등학교,41280,경기도 고양시 일산서구 일산동 966-50번지 일산고등학교,경기도 고양시 일산서구,250,264,252,766,고양시,일산서구,일산동
일산대진고등학교,41280,경기도 고양시 일산서구 대화동 2097번지 일산대진고등학교,경기도 고양시 일산서구,350,332,404,1086,고양시,일산서구,대화동
일산동고등학교,41280,경기도 고양시 일산서구 탄현동 1471번지 일산동고등학교 탄현로100,경기도 고양시 일산서구,323,326,352,1001,고양시,일산서구,탄현동
일산국제컨벤션고등학교,41280,경기도 고양시 일산서구 주엽동 41번지,경기도 고양시 일산서구,296,242,280,818,고양시,일산서구,주엽동
일죽고등학교,41550,경기도 안성시 일죽면 송천리 243-1번지 일죽고등학교,경기도 안성시,41,49,48,138,안성시,None,일죽면
장곡고등학교,41390,경기도 시흥시 장곡동 799번지 장곡고등학교,경기도 시흥시,239,223,264,726,시흥시,None,장곡동
장안고등학교,41110,경기도 수원시 장안구 정자동 886-3번지 장안고등학교,경기도 수원시 장안구,272,247,294,813,수원시,장안구,정자동
부원고등학교,41500,경기도 이천시 장호원읍 장호원리 261-5번지 부원고등학교,경기도 이천시,121,132,156,409,이천시,None,장호원읍
장호원고등학교,41500,경기도 이천시 장호원읍 노탑리 717번지 장호원고등학교,경기도 이천시,117,114,136,367,이천시,None,장호원읍
저동고등학교,41280,경기도 고양시 일산동구 정발산동 1208번지 저동고등학교,경기도 고양시 일산동구,326,315,377,1018,고양시,일산동구,정발산동
가평고등학교,41820,경기도 가평군 가평읍 대곡리 113번지,경기도 가평군,206,201,232,639,가평군,None,가평읍
경기과학고등학교,41110,경기도 수원시 장안구 송죽동 68-23번지 경기과학고등학교,경기도 수원시 장안구,126,127,127,380,수원시,장안구,송죽동
경기대명고등학교,41110,경기도 수원시 권선구 당수동 122번지 경기대명고등학교,경기도 수원시 권선구,17,21,25,63,수원시,권선구,당수동
경기체육고등학교,41110,경기도 수원시 장안구 천천동 30-1번지 경기체육고등학교,경기도 수원시 장안구,104,81,90,275,수원시,장안구,천천동
이천세무고등학교,41500,경기도 이천시 설성면 금당리 175번지 이천세무고등학교,경기도 이천시,50,44,47,141,이천시,None,설성면
경민고등학교,41150,경기도 의정부시 가능동 562-1번지 경민고등학교,경기도 의정부시,248,247,271,766,의정부시,None,가능동
경민비즈니스고등학교,41150,경기도 의정부시 가능동 562-1번지 경민비즈니스고등학교,경기도 의정부시,226,194,229,649,의정부시,None,가능동
경민IT고등학교,41150,경기도 의정부시 가능동 562-1번지 경민IT고등학교,경기도 의정부시,199,207,208,614,의정부시,None,가능동
경안고등학교,41270,경기도 안산시 단원구 고잔동 677번지 경안고등학교,경기도 안산시 단원구,350,357,467,1174,안산시,단원구,고잔동
경일관광경영고등학교,41270,경기도 안산시 단원구 선부동 1053번지,경기도 안산시 단원구,287,294,306,887,안산시,단원구,선부동
경화여자고등학교,41610,경기도 광주시 송정동 52-1번지 경화여자고등학교,경기도 광주시,331,304,363,998,광주시,None,송정동
계남고등학교,41190,경기도 부천시 중동 1185-1번지 계남고등학교,경기도 부천시,247,259,279,785,부천시,None,중동
계원예술고등학교,41130,경기도 성남시 분당구 정자동 207번지,경기도 성남시 분당구,327,317,321,965,성남시,분당구,정자동
백송고등학교,41280,경기도 고양시 일산서구 덕이동 753-11번지 백송고등학교,경기도 고양시 일산서구,126,123,122,371,고양시,일산서구,덕이동
고양외국어고등학교,41280,경기도 고양시 덕양구 관산동 332번지,경기도 고양시 덕양구,244,235,255,734,고양시,덕양구,관산동
고양고등학교,41280,경기도 고양시 덕양구 삼송동 45-2번지,경기도 고양시 덕양구,196,189,202,587,고양시,덕양구,삼송동
고잔고등학교,41270,경기도 안산시 단원구 고잔동 776-1번지 고잔고등학교,경기도 안산시 단원구,330,319,428,1077,안산시,단원구,고잔동
과천고등학교,41290,경기도 과천시 별양동 5번지 과천고등학교,경기도 과천시,198,186,214,598,과천시,None,별양동
과천여자고등학교,41290,경기도 과천시 중앙동 11번지 과천여자고등학교,경기도 과천시,143,165,193,501,과천시,None,중앙동
과천외국어고등학교,41290,경기도 과천시 중앙동 11번지 과천외국어고등학교,경기도 과천시,224,216,240,680,과천시,None,중앙동
과천중앙고등학교,41290,경기도 과천시 갈현동 648번지,경기도 과천시,177,186,207,570,과천시,None,갈현동
관양고등학교,41170,경기도 안양시 동안구 관양동 523-4번지,경기도 안양시 동안구,337,321,370,1028,안양시,동안구,관양동
관인고등학교,41650,경기도 포천시 관인면 탄동리 607-3번지 관인중고등학교,경기도 포천시,33,26,35,94,포천시,None,관인면
광동고등학교,41360,경기도 남양주시 진접읍 장현리 603-5번지,경기도 남양주시,350,329,371,1050,남양주시,None,진접읍
의정부광동고등학교,41150,경기도 의정부시 녹양동 126-1번지 의정부광동고등학교,경기도 의정부시,254,196,228,678,의정부시,None,녹양동
광명고등학교,41210,경기도 광명시 철산동 234번지 광명고등학교,경기도 광명시,311,292,344,947,광명시,None,철산동
광명북고등학교,41210,경기도 광명시 철산동 59-1번지,경기도 광명시,338,308,423,1069,광명시,None,철산동
명문고등학교,41210,경기도 광명시 광명동 379-1번지 명문고등학교,경기도 광명시,339,312,381,1032,광명시,None,광명동
광명경영회계고등학교,41210,경기도 광명시 소하동 883-13번지 광명경영회계고교,경기도 광명시,189,176,137,502,광명시,None,소하동
광문고등학교,41210,경기도 광명시 광명동 492-1번지,경기도 광명시,307,289,327,923,광명시,None,광명동
광주고등학교,41610,경기도 광주시 송정동 35번지 광주고등학교,경기도 광주시,314,314,387,1015,광주시,None,송정동
광주중앙고등학교,41610,경기도 광주시 역동 30-1번지 광주중앙고등학교,경기도 광주시,378,354,451,1183,광주시,None,역동
광탄고등학교,41480,경기도 파주시 광탄면 신산리 232번지,경기도 파주시,95,90,92,277,파주시,None,광탄면
구리여자고등학교,41310,경기도 구리시 토평동 214번지 구리여자고등학교,경기도 구리시,237,236,269,742,구리시,None,토평동
군자디지털과학고등학교,41390,경기도 시흥시 거모동 1426번지 군자디지털과학고등학교,경기도 시흥시,151,172,202,525,시흥시,None,거모동
군포고등학교,41410,경기도 군포시 금정동 870-4번지 군포고등학교,경기도 군포시,314,298,344,956,군포시,None,금정동
군포e비즈니스고등학교,41410,경기도 군포시 산본동 1149-6번지 군포e비즈니스고등학교,경기도 군포시,169,136,205,510,군포시,None,산본동
권선고등학교,41110,경기도 수원시 권선구 권선동 1243번지 권선고등학교,경기도 수원시 권선구,360,340,408,1108,수원시,권선구,권선동
금곡고등학교,41360,경기도 남양주시 금곡동 152-18번지,경기도 남양주시,306,284,294,884,남양주시,None,금곡동
기흥고등학교,41460,경기도 용인시 기흥구 신갈동 161번지 기흥고등학교,경기도 용인시 기흥구,300,257,319,876,용인시,기흥구,신갈동
김포고등학교,41570,경기도 김포시 사우동 216번지 김포고등학교,경기도 김포시,362,366,364,1092,김포시,None,사우동
김포제일공업고등학교,41570,경기도 김포시 북변동 477번지 김포제일공업고등학교,경기도 김포시,247,202,228,677,김포시,None,북변동
낙생고등학교,41130,경기도 성남시 분당구 판교동 649번지,경기도 성남시 분당구,286,261,313,860,성남시,분당구,판교동
한국외식과학고등학교,41630,경기도 양주시 남면 신산리 186-2번지 한국외식과학고등학교,경기도 양주시,120,115,107,342,양주시,None,남면
남양고등학교,41590,경기도 화성시 남양읍 남양리 1633-1번지 남양고등학교,경기도 화성시,164,162,177,503,화성시,None,남양읍
남양주공업고등학교,41360,경기도 남양주시 화도읍 월산리 99-4번지 남양주공업고등학교,경기도 남양주시,152,185,193,530,남양주시,None,화도읍
능곡고등학교,41280,경기도 고양시 덕양구 토당동 394-3번지,경기도 고양시 덕양구,301,274,321,896,고양시,덕양구,토당동
대부고등학교,41270,경기도 안산시 단원구 대부북동 697-6번지,경기도 안산시 단원구,16,24,34,74,안산시,단원구,대부북동
성복고등학교,41460,경기도 용인시 수지구 성복동 782번지 성복고등학교,경기도 용인시 수지구,388,345,381,1114,용인시,수지구,성복동
대화고등학교,41280,경기도 고양시 일산서구 대화동 1978번지,경기도 고양시 일산서구,326,313,325,964,고양시,일산서구,대화동
이현고등학교,41500,경기도 이천시 갈산동 588번지 이현고등학교,경기도 이천시,264,271,302,837,이천시,None,갈산동
초월고등학교,41610,경기도 광주시 초월읍 대쌍령리 495번지 초월고등학교,경기도 광주시,325,326,392,1043,광주시,None,초월읍
향일고등학교,41590,경기도 화성시 향남읍 행정리 439번지 향일고등학교,경기도 화성시,241,253,281,775,화성시,None,향남읍
판곡고등학교,41360,경기도 남양주시 호평동 442번지,경기도 남양주시,350,324,369,1043,남양주시,None,호평동
광교고등학교,41110,경기도 수원시 영통구 이의동 1346번지,경기도 수원시 영통구,282,263,330,875,수원시,영통구,이의동
덕이고등학교,41280,경기도 고양시 일산서구 덕이동 1615번지 덕이고등학교,경기도 고양시 일산서구,309,294,323,926,고양시,일산서구,덕이동
송양고등학교,41150,경기도 의정부시 낙양동 759번지 송양고등학교,경기도 의정부시,307,323,348,978,의정부시,None,낙양동
별내고등학교,41360,경기도 남양주시 별내동 1051번지 별내고등학교,경기도 남양주시,261,279,347,887,남양주시,None,별내동
군포중앙고등학교,41410,경기도 군포시 부곡동 1094번지 군포중앙고등학교,경기도 군포시,213,202,210,625,군포시,None,부곡동
상현고등학교,41460,경기도 용인시 수지구 상현동 519-3번지,경기도 용인시 수지구,322,300,318,940,용인시,수지구,상현동
솔터고등학교,41570,경기도 김포시 마산동 615-6번지 솔터고등학교,경기도 김포시,330,254,212,796,김포시,None,마산동
신봉고등학교,41460,경기도 용인시 수지구 신봉동 979번지,경기도 용인시 수지구,369,322,355,1046,용인시,수지구,신봉동
비전고등학교,41220,경기도 평택시 비전동 1088번지,경기도 평택시,321,286,305,912,평택시,None,비전동
부곡고등학교,41270,경기도 안산시 상록구 부곡동 446-3번지,경기도 안산시 상록구,288,301,315,904,안산시,상록구,부곡동
풍산고등학교,41450,경기도 하남시 덕풍동 778번지,경기도 하남시,219,206,206,631,하남시,None,덕풍동
호매실고등학교,41110,경기도 수원시 권선구 호매실동 1365번지,경기도 수원시 권선구,218,204,218,640,수원시,권선구,호매실동
고양국제고등학교,41280,경기도 고양시 일산동구 식사동 1483번지,경기도 고양시 일산동구,204,200,189,593,고양시,일산동구,식사동
저현고등학교,41280,경기도 고양시 일산동구 식사동 1552번지,경기도 고양시 일산동구,322,306,325,953,고양시,일산동구,식사동
동탄국제고등학교,41590,경기도 화성시 반송동 203번지 동탄국제고등학교,경기도 화성시,206,192,192,590,화성시,None,반송동
고양동산고등학교,41280,경기도 고양시 덕양구 동산동 362번지,경기도 고양시 덕양구,210,204,229,643,고양시,덕양구,동산동
광휘고등학교,41210,경기도 광명시 소하동 1390번지 광휘고등학교,경기도 광명시,262,265,285,812,광명시,None,소하동
화성반월고등학교,41590,경기도 화성시 반월동 945번지 화성반월고등학교,경기도 화성시,294,281,334,909,화성시,None,반월동
매홀고등학교,41370,경기도 오산시 수청동 632번지,경기도 오산시,284,254,209,747,오산시,None,수청동
수원칠보고등학교,41110,경기도 수원시 권선구 금곡동 1073번지,경기도 수원시 권선구,273,250,288,811,수원시,권선구,금곡동
곡정고등학교,41110,경기도 수원시 권선구 권선동 1338번지 곡정고등학교 임의로 수정,경기도 수원시 권선구,257,229,289,775,수원시,권선구,권선동
운양고등학교,41570,경기도 김포시 운양동 1325-6번지 운양고등학교,경기도 김포시,325,310,332,967,김포시,None,운양동
한민고등학교,41480,경기도 파주시 광탄면 용미리 704-10번지,경기도 파주시,369,347,323,1039,파주시,None,광탄면
옥정고등학교,41630,경기도 양주시 옥정동 948번지 옥정고등학교,경기도 양주시,322,298,282,902,양주시,None,옥정동
미사고등학교,41450,경기도 하남시 망월동 933번지 미사고등학교,경기도 하남시,222,204,203,629,하남시,None,망월동
한백고등학교,41590,경기도 화성시 영천동 696번지,경기도 화성시,351,339,394,1084,화성시,None,영천동
동탄중앙고등학교,41590,경기도 화성시 청계동 531번지 동탄중앙고등학교,경기도 화성시,333,321,374,1028,화성시,None,청계동
이의고등학교,41110,경기도 수원시 영통구 하동 977번지,경기도 수원시 영통구,331,304,365,1000,수원시,영통구,하동
김포제일고등학교,41570,경기도 김포시 운양동 625-8번지 김포제일고등학교,경기도 김포시,365,345,356,1066,김포시,None,운양동
지산고등학교,41480,경기도 파주시 와동동 1612번지,경기도 파주시,381,335,369,1085,파주시,None,와동동
별가람고등학교,41360,경기도 남양주시 별내동 909번지 별가람고등학교,경기도 남양주시,244,98,210,552,남양주시,None,별내동
갈매고등학교,41310,경기도 구리시 갈매동 653번지 갈매고등학교,경기도 구리시,249,190,214,653,구리시,None,갈매동
한빛고등학교,41480,경기도 파주시 야당동 1013번지,경기도 파주시,372,338,353,1063,파주시,None,야당동
미사강변고등학교,41450,경기도 하남시 선동 418번지 미사강변고등학교,경기도 하남시,149,106,145,400,하남시,None,선동
태전고등학교,41610,경기도 광주시 태전동 150번지,경기도 광주시,285,252,0,537,광주시,None,태전동
고림고등학교,41460,경기도 용인시 처인구 고림동 650-1번지,경기도 용인시 처인구,340,343,373,1056,용인시,처인구,고림동
배곧고등학교,41390,경기도 시흥시 정왕동 2489번지,경기도 시흥시,330,308,317,955,시흥시,None,정왕동
위례고등학교,41450,경기도 하남시 학암동 666번지 위례고등학교,경기도 하남시,76,47,66,189,하남시,None,학암동
하길고등학교,41590,경기도 화성시 향남읍 하길리 1509번지 하길고등학교,경기도 화성시,279,158,212,649,화성시,None,향남읍
위례한빛고등학교,41130,경기도 성남시 수정구 창곡동 574번지 위례한빛고등학교,경기도 성남시 수정구,284,269,274,827,성남시,수정구,창곡동
이산고등학교,41590,경기도 화성시 오산동 599번지,경기도 화성시,361,261,0,622,화성시,None,오산동
창의고등학교,41590,경기도 화성시 목동 350번지 창의고등학교,경기도 화성시,369,287,236,892,화성시,None,목동
문산제일고등학교,41480,경기도 파주시 야동동 361번지,경기도 파주시,272,270,279,821,파주시,None,야동동
부흥고등학교,41170,경기도 안양시 동안구 비산동 1102-2번지 부흥고등학교,경기도 안양시 동안구,374,354,400,1128,안양시,동안구,비산동
성호고등학교,41370,경기도 오산시 원동 605번지 성호고등학교,경기도 오산시,302,278,299,879,오산시,None,원동
수원여자고등학교,41110,경기도 수원시 팔달구 고등동 19-1번지 수원여자고등학교,경기도 수원시 팔달구,314,305,340,959,수원시,팔달구,고등동
두원공업고등학교,41550,경기도 안성시 미양면 신기리 47-8번지,경기도 안성시,223,232,261,716,안성시,None,미양면
양일고등학교,41830,경기도 양평군 양평읍 양근리 148번지 양일고등학교,경기도 양평군,225,202,242,669,양평군,None,양평읍
의정부여자고등학교,41150,경기도 의정부시 가능동 653번지 의정부여자고등학교,경기도 의정부시,264,250,260,774,의정부시,None,가능동
경기세무고등학교,41480,경기도 파주시 적성면 마지리 156-1번지,경기도 파주시,27,24,21,72,파주시,None,적성면
곤지암고등학교,41610,경기도 광주시 곤지암읍 곤지암리 453-12번지 곤지암고등학교,경기도 광주시,131,115,159,405,광주시,None,곤지암읍
남한고등학교,41450,경기도 하남시 덕풍동 450번지 남한고등학교,경기도 하남시,218,200,198,616,하남시,None,덕풍동
도래울고등학교,41280,경기도 고양시 덕양구 도내동 1098번지,경기도 고양시 덕양구,265,229,242,736,고양시,덕양구,도내동
경기관광고등학교,41670,경기도 여주시 대신면 율촌리 271번지 경기관광고등학교,경기도 여주시,103,103,91,297,여주시,None,대신면
파주고등학교,41480,경기도 파주시 문산읍 당동리 140번지 파주고등학교,경기도 파주시,103,111,111,325,파주시,None,문산읍
시흥고등학교,41390,경기도 시흥시 하상동 384번지 시흥고등학교,경기도 시흥시,327,320,386,1033,시흥시,None,하상동
도농고등학교,41360,경기도 남양주시 다산동 4330-3번지 도농고등학교,경기도 남양주시,290,275,322,887,남양주시,None,다산동
가좌고등학교,41280,경기도 고양시 일산서구 가좌동 1097번지 가좌고등학교,경기도 고양시 일산서구,319,307,328,954,고양시,일산서구,가좌동
예당고등학교,41590,경기도 화성시 석우동 61번지 예당고등학교,경기도 화성시,339,304,299,942,화성시,None,석우동
청북고등학교,41220,경기도 평택시 청북읍 옥길리 1145번지,경기도 평택시,270,233,261,764,평택시,None,청북읍
전곡고등학교,41800,경기도 연천군 전곡읍 은대리 506-1번지 전곡고등학교,경기도 연천군,197,240,262,699,연천군,None,전곡읍
점동고등학교,41670,경기도 여주시 점동면 청안리 122번지,경기도 여주시,53,51,57,161,여주시,None,점동면
정명고등학교,41190,경기도 부천시 심곡본동 768-9번지 정명고등학교,경기도 부천시,268,240,241,749,부천시,None,심곡본동
경기경영고등학교,41190,경기도 부천시 심곡본동 768-9번지,경기도 부천시,256,240,243,739,부천시,None,심곡본동
정발고등학교,41280,경기도 고양시 일산동구 마두동 894번지 정발고등학교,경기도 고양시 일산동구,327,295,337,959,고양시,일산동구,마두동
정왕고등학교,41390,경기도 시흥시 정왕동 1849-4번지 정왕고등학교,경기도 시흥시,387,309,315,1011,시흥시,None,정왕동
조종고등학교,41820,경기도 가평군 조종면 현리 438번지,경기도 가평군,47,58,73,178,가평군,None,조종면
주엽고등학교,41280,경기도 고양시 일산서구 대화동 2168번지,경기도 고양시 일산서구,358,347,424,1129,고양시,일산서구,대화동
경기영상과학고등학교,41280,경기도 고양시 일산서구 주엽동 95번지,경기도 고양시 일산서구,253,255,257,765,고양시,일산서구,주엽동
죽산고등학교,41550,경기도 안성시 죽산면 죽산리 321번지 죽산고등학교,경기도 안성시,28,32,42,102,안성시,None,죽산면
죽전고등학교,41460,경기도 용인시 수지구 죽전동 861-1번지 죽전고등학교,경기도 용인시 수지구,376,350,384,1110,용인시,수지구,죽전동
중산고등학교,41280,경기도 고양시 일산동구 중산동 1554번지 중산고등학교,경기도 고양시 일산동구,317,299,352,968,고양시,일산동구,중산동
중흥고등학교,41190,경기도 부천시 중동 1040-4번지 중흥고등학교,경기도 부천시,255,268,282,805,부천시,None,중동
지평고등학교,41830,경기도 양평군 지평면 지평리 553번지 지평고등학교,경기도 양평군,29,24,28,81,양평군,None,지평면
진건고등학교,41360,경기도 남양주시 진건읍 송능리 62-1번지 진건고등학교,경기도 남양주시,337,323,356,1016,남양주시,None,진건읍
진성고등학교,41210,경기도 광명시 하안동 23-1번지 진성고등학교,경기도 광명시,243,216,244,703,광명시,None,하안동
진위고등학교,41220,경기도 평택시 진위면 가곡리 505번지,경기도 평택시,113,139,173,425,평택시,None,진위면
창현고등학교,41110,경기도 수원시 팔달구 우만동 9-1번지 창현고등학교 (우만동),경기도 수원시 팔달구,379,368,447,1194,수원시,팔달구,우만동
청담고등학교,41220,경기도 평택시 팽성읍 송화리 810번지 청담고등학교,경기도 평택시,217,241,245,703,평택시,None,팽성읍
청명고등학교,41110,경기도 수원시 영통구 영통동 956-1번지,경기도 수원시 영통구,349,336,355,1040,수원시,영통구,영통동
청운고등학교,41830,경기도 양평군 청운면 용두리 690-4번지 청운중고등학교,경기도 양평군,16,23,30,69,양평군,None,청운면
청평고등학교,41820,경기도 가평군 청평면 청평리 70-5번지 청평고등학교,경기도 가평군,60,86,103,249,가평군,None,청평면
청학고등학교,41360,경기도 남양주시 별내면 청학리 408-1번지 청학고등학교,경기도 남양주시,210,169,271,650,남양주시,None,별내면
초지고등학교,41270,경기도 안산시 단원구 초지동 725-1번지 초지고등학교,경기도 안산시 단원구,277,260,347,884,안산시,단원구,초지동
충현고등학교,41210,경기도 광명시 소하동 991-1번지 충현고등학교,경기도 광명시,210,228,231,669,광명시,None,소하동
태광고등학교,41220,경기도 평택시 신장동 263-6번지 태광고등학교,경기도 평택시,271,275,300,846,평택시,None,신장동
태성고등학교,41460,경기도 용인시 처인구 남동 28번지 태성중학교,경기도 용인시 처인구,249,247,252,748,용인시,처인구,남동
태원고등학교,41130,경기도 성남시 분당구 야탑동 754-1번지 태원고등학교,경기도 성남시 분당구,344,320,382,1046,성남시,분당구,야탑동
태장고등학교,41110,경기도 수원시 영통구 영통동 973-2번지 태장고등학교,경기도 수원시 영통구,350,337,440,1127,수원시,영통구,영통동
토평고등학교,41310,경기도 구리시 토평동 962번지 토평고등학교,경기도 구리시,241,241,299,781,구리시,None,토평동
통진고등학교,41570,경기도 김포시 통진읍 마송리 8-1번지 통진고등학교,경기도 김포시,265,233,252,750,김포시,None,통진읍
퇴계원고등학교,41360,경기도 남양주시 퇴계원면 퇴계원리 44-5번지,경기도 남양주시,314,317,345,976,남양주시,None,퇴계원면
세경고등학교,41480,경기도 파주시 파주읍 연풍리 산83-13번지,경기도 파주시,279,292,288,859,파주시,None,파주읍
파주여자고등학교,41480,경기도 파주시 월롱면 영태리 535번지,경기도 파주시,81,62,114,257,파주시,None,월롱면
수원하이텍고등학교,41110,경기도 수원시 영통구 영통동 1049-1번지 수원하이텍고등학교,경기도 수원시 영통구,163,159,154,476,수원시,영통구,영통동
평촌고등학교,41170,경기도 안양시 동안구 호계동 1054번지 평촌고등학교,경기도 안양시 동안구,386,363,404,1153,안양시,동안구,호계동
평촌공업고등학교,41170,경기도 안양시 동안구 호계동 1105번지,경기도 안양시 동안구,302,275,284,861,안양시,동안구,호계동
평촌경영고등학교,41170,경기도 안양시 동안구 관양동 1587-2번지 평촌경영고등학교,경기도 안양시 동안구,324,312,308,944,안양시,동안구,관양동
평택고등학교,41220,경기도 평택시 합정동 368-11번지 평택고등학교,경기도 평택시,279,254,276,809,평택시,None,합정동
평택기계공업고등학교,41220,경기도 평택시 비전동 564-8번지,경기도 평택시,162,153,150,465,평택시,None,비전동
경기항공고등학교,41210,경기도 광명시 광명동 42-122번지 광명공고,경기도 광명시,63,82,57,202,광명시,None,광명동
한봄고등학교,41110,경기도 수원시 권선구 탑동 614번지,경기도 수원시 권선구,269,219,241,729,수원시,권선구,탑동
용인홍천고등학교,41460,경기도 용인시 수지구 신봉동 885번지,경기도 용인시 수지구,381,336,383,1100,용인시,수지구,신봉동
경기폴리텍고등학교,41410,경기도 군포시 산본동 1146-14번지 산본공업고등학교,경기도 군포시,100,84,99,283,군포시,None,산본동
경기게임마이스터고등학교,41170,경기도 안양시 동안구 비산동 1101번지 경기글로벌통상고등학교,경기도 안양시 동안구,47,98,155,300,안양시,동안구,비산동
근명고등학교,41170,경기도 안양시 만안구 안양동 708-197번지,경기도 안양시 만안구,231,183,234,648,안양시,만안구,안양동
경기스마트고등학교,41390,경기도 시흥시 정왕동 1522번지,경기도 시흥시,96,81,143,320,시흥시,None,정왕동
정현고등학교,41590,경기도 화성시 산척동 산133-1,경기도 화성시,351,0,0,351,화성시,None,산척동
